{
  "type": "FeatureCollection",
  "features": [
    {
      "type": "Feature",
      "properties": {
        "norad_id": 15362,
        "name": "NOVA 3",
        "group": "nnss",
        "lat": 48.8358953874272,
        "lon": 80.3717279756175,
        "alt_km": 1161.2923706894853,
        "timestamp": "2025-12-10T18:57:00.334031+00:00",
        "meta_object_name": "NOVA 3",
        "meta_object_id": "1984-110A",
        "meta_epoch": "2025-12-10T08:08:18.361824",
        "meta_mean_motion": 13.23044241,
        "meta_eccentricity": 0.003067,
        "meta_inclination": 90.1224,
        "meta_ra_of_asc_node": 80.5065,
        "meta_arg_of_pericenter": 338.7518,
        "meta_mean_anomaly": 85.4174,
        "meta_ephemeris_type": 0,
        "meta_classification_type": "U",
        "meta_norad_cat_id": 15362,
        "meta_element_set_no": 999,
        "meta_rev_at_epoch": 98667,
        "meta_bstar": 0.00022499,
        "meta_mean_motion_dot": 1.03e-06,
        "meta_mean_motion_ddot": 0,
        "tle_line1": "1 15362U 84110A   25344.33910141  .00000103  00000+0  22499-3 0  9993",
        "tle_line2": "2 15362  90.1224  80.5065 0030670 338.7518  85.4174 13.23044241986671"
      },
      "geometry": {
        "type": "Point",
        "coordinates": [
          80.3717279756175,
          48.8358953874272
        ]
      }
    },
    {
      "type": "Feature",
      "properties": {
        "norad_id": 15935,
        "name": "OSCAR 30",
        "group": "nnss",
        "lat": 36.34532586607788,
        "lon": 99.69373227115759,
        "alt_km": 1043.358869760349,
        "timestamp": "2025-12-10T18:57:00.334046+00:00",
        "meta_object_name": "OSCAR 30",
        "meta_object_id": "1985-066A",
        "meta_epoch": "2025-12-10T08:15:08.805024",
        "meta_mean_motion": 13.36077839,
        "meta_eccentricity": 0.0169417,
        "meta_inclination": 90.1649,
        "meta_ra_of_asc_node": 99.8079,
        "meta_arg_of_pericenter": 90.5911,
        "meta_mean_anomaly": 324.703,
        "meta_ephemeris_type": 0,
        "meta_classification_type": "U",
        "meta_norad_cat_id": 15935,
        "meta_element_set_no": 999,
        "meta_rev_at_epoch": 96421,
        "meta_bstar": 0.00026577,
        "meta_mean_motion_dot": 1.58e-06,
        "meta_mean_motion_ddot": 0,
        "tle_line1": "1 15935U 85066A   25344.34385191  .00000158  00000+0  26577-3 0  9993",
        "tle_line2": "2 15935  90.1649  99.8079 0169417  90.5911 324.7030 13.36077839964217"
      },
      "geometry": {
        "type": "Point",
        "coordinates": [
          99.69373227115759,
          36.34532586607788
        ]
      }
    },
    {
      "type": "Feature",
      "properties": {
        "norad_id": 15936,
        "name": "OSCAR 24",
        "group": "nnss",
        "lat": 65.01195928305464,
        "lon": -87.3450492764159,
        "alt_km": 997.1335978111047,
        "timestamp": "2025-12-10T18:57:00.334068+00:00",
        "meta_object_name": "OSCAR 24",
        "meta_object_id": "1985-066B",
        "meta_epoch": "2025-12-10T09:44:11.901120",
        "meta_mean_motion": 13.35935343,
        "meta_eccentricity": 0.0170484,
        "meta_inclination": 90.1789,
        "meta_ra_of_asc_node": 92.2641,
        "meta_arg_of_pericenter": 96.8536,
        "meta_mean_anomaly": 332.2522,
        "meta_ephemeris_type": 0,
        "meta_classification_type": "U",
        "meta_norad_cat_id": 15936,
        "meta_element_set_no": 999,
        "meta_rev_at_epoch": 96612,
        "meta_bstar": 0.00022873,
        "meta_mean_motion_dot": 1.37e-06,
        "meta_mean_motion_ddot": 0,
        "tle_line1": "1 15936U 85066B   25344.40569330  .00000137  00000+0  22873-3 0  9992",
        "tle_line2": "2 15936  90.1789  92.2641 0170484  96.8536 332.2522 13.35935343966127"
      },
      "geometry": {
        "type": "Point",
        "coordinates": [
          -87.3450492764159,
          65.01195928305464
        ]
      }
    },
    {
      "type": "Feature",
      "properties": {
        "norad_id": 17070,
        "name": "POLAR BEAR",
        "group": "nnss",
        "lat": 34.153641712880216,
        "lon": -175.88860842070352,
        "alt_km": 978.8310236311008,
        "timestamp": "2025-12-10T18:57:00.334081+00:00",
        "meta_object_name": "POLAR BEAR",
        "meta_object_id": "1986-088A",
        "meta_epoch": "2025-12-10T12:05:37.086144",
        "meta_mean_motion": 13.75250149,
        "meta_eccentricity": 0.0040839,
        "meta_inclination": 89.6176,
        "meta_ra_of_asc_node": 183.8633,
        "meta_arg_of_pericenter": 125.7228,
        "meta_mean_anomaly": 295.451,
        "meta_ephemeris_type": 0,
        "meta_classification_type": "U",
        "meta_norad_cat_id": 17070,
        "meta_element_set_no": 999,
        "meta_rev_at_epoch": 95948,
        "meta_bstar": 0.00014788,
        "meta_mean_motion_dot": 1.54e-06,
        "meta_mean_motion_ddot": 0,
        "tle_line1": "1 17070U 86088A   25344.50390146  .00000154  00000+0  14788-3 0  9991",
        "tle_line2": "2 17070  89.6176 183.8633 0040839 125.7228 295.4510 13.75250149959485"
      },
      "geometry": {
        "type": "Point",
        "coordinates": [
          -175.88860842070352,
          34.153641712880216
        ]
      }
    },
    {
      "type": "Feature",
      "properties": {
        "norad_id": 18361,
        "name": "OSCAR 27",
        "group": "nnss",
        "lat": 36.19461547189566,
        "lon": -100.52664150663908,
        "alt_km": 1082.071476531055,
        "timestamp": "2025-12-10T18:57:00.334092+00:00",
        "meta_object_name": "OSCAR 27",
        "meta_object_id": "1987-080A",
        "meta_epoch": "2025-12-10T12:52:14.922048",
        "meta_mean_motion": 13.44906041,
        "meta_eccentricity": 0.0102747,
        "meta_inclination": 90.3742,
        "meta_ra_of_asc_node": 79.1899,
        "meta_arg_of_pericenter": 230.1795,
        "meta_mean_anomaly": 129.0276,
        "meta_ephemeris_type": 0,
        "meta_classification_type": "U",
        "meta_norad_cat_id": 18361,
        "meta_element_set_no": 999,
        "meta_rev_at_epoch": 87527,
        "meta_bstar": 0.00026849,
        "meta_mean_motion_dot": 1.7e-06,
        "meta_mean_motion_ddot": 0,
        "tle_line1": "1 18361U 87080A   25344.53628382  .00000170  00000+0  26849-3 0  9996",
        "tle_line2": "2 18361  90.3742  79.1899 0102747 230.1795 129.0276 13.44906041875275"
      },
      "geometry": {
        "type": "Point",
        "coordinates": [
          -100.52664150663908,
          36.19461547189566
        ]
      }
    },
    {
      "type": "Feature",
      "properties": {
        "norad_id": 18362,
        "name": "OSCAR 29",
        "group": "nnss",
        "lat": 20.78526708720104,
        "lon": -100.19930548167315,
        "alt_km": 1096.931685663787,
        "timestamp": "2025-12-10T18:57:00.334103+00:00",
        "meta_object_name": "OSCAR 29",
        "meta_object_id": "1987-080B",
        "meta_epoch": "2025-12-10T07:44:04.763040",
        "meta_mean_motion": 13.44447807,
        "meta_eccentricity": 0.0103811,
        "meta_inclination": 90.3754,
        "meta_ra_of_asc_node": 79.6406,
        "meta_arg_of_pericenter": 254.1865,
        "meta_mean_anomaly": 165.6643,
        "meta_ephemeris_type": 0,
        "meta_classification_type": "U",
        "meta_norad_cat_id": 18362,
        "meta_element_set_no": 999,
        "meta_rev_at_epoch": 87477,
        "meta_bstar": 0.0002499,
        "meta_mean_motion_dot": 1.57e-06,
        "meta_mean_motion_ddot": 0,
        "tle_line1": "1 18362U 87080B   25344.32227735  .00000157  00000+0  24990-3 0  9991",
        "tle_line2": "2 18362  90.3754  79.6406 0103811 254.1865 165.6643 13.44447807874773"
      },
      "geometry": {
        "type": "Point",
        "coordinates": [
          -100.19930548167315,
          20.78526708720104
        ]
      }
    },
    {
      "type": "Feature",
      "properties": {
        "norad_id": 19070,
        "name": "OSCAR 23",
        "group": "nnss",
        "lat": 50.84454955248197,
        "lon": 15.937274090648952,
        "alt_km": 1248.974315095762,
        "timestamp": "2025-12-10T18:57:00.334113+00:00",
        "meta_object_name": "OSCAR 23",
        "meta_object_id": "1988-033A",
        "meta_epoch": "2025-12-10T12:05:29.983200",
        "meta_mean_motion": 13.27786635,
        "meta_eccentricity": 0.0189345,
        "meta_inclination": 90.3214,
        "meta_ra_of_asc_node": 16.3233,
        "meta_arg_of_pericenter": 186.1416,
        "meta_mean_anomaly": 301.1499,
        "meta_ephemeris_type": 0,
        "meta_classification_type": "U",
        "meta_norad_cat_id": 19070,
        "meta_element_set_no": 999,
        "meta_rev_at_epoch": 82223,
        "meta_bstar": 0.00020511,
        "meta_mean_motion_dot": 1.1e-06,
        "meta_mean_motion_ddot": 0,
        "tle_line1": "1 19070U 88033A   25344.50381925  .00000110  00000+0  20511-3 0  9993",
        "tle_line2": "2 19070  90.3214  16.3233 0189345 186.1416 301.1499 13.27786635822235"
      },
      "geometry": {
        "type": "Point",
        "coordinates": [
          15.937274090648952,
          50.84454955248197
        ]
      }
    }
  ]
}